{
  "links" : {
    "next" : "https://api.nasa.gov/neo/rest/v1/feed?start_date=1997-02-16&end_date=1997-02-16&detailed=true&api_key=t0TVs3DtDT2H8Oy2Zy8m2eVrNsAVKAexjcZXUckd",
    "prev" : "https://api.nasa.gov/neo/rest/v1/feed?start_date=1997-02-14&end_date=1997-02-14&detailed=true&api_key=t0TVs3DtDT2H8Oy2Zy8m2eVrNsAVKAexjcZXUckd",
    "self" : "https://api.nasa.gov/neo/rest/v1/feed?start_date=1997-02-15&end_date=1997-02-15&detailed=true&api_key=t0TVs3DtDT2H8Oy2Zy8m2eVrNsAVKAexjcZXUckd"
  },
  "element_count" : 4,
  "near_earth_objects" : {
    "1997-02-15" : [ {
      "links" : {
        "self" : "https://api.nasa.gov/neo/rest/v1/neo/2136818?api_key=t0TVs3DtDT2H8Oy2Zy8m2eVrNsAVKAexjcZXUckd"
      },
      "neo_reference_id" : "2136818",
      "name" : "136818 Selqet (1997 MW1)",
      "nasa_jpl_url" : "http://ssd.jpl.nasa.gov/sbdb.cgi?sstr=2136818",
      "absolute_magnitude_h" : 18.9,
      "estimated_diameter" : {
        "kilometers" : {
          "estimated_diameter_min" : 0.4411182,
          "estimated_diameter_max" : 0.9863702813
        },
        "meters" : {
          "estimated_diameter_min" : 441.1181999969,
          "estimated_diameter_max" : 986.3702813054
        },
        "miles" : {
          "estimated_diameter_min" : 0.2740980571,
          "estimated_diameter_max" : 0.6129018881
        },
        "feet" : {
          "estimated_diameter_min" : 1447.2382352778,
          "estimated_diameter_max" : 3236.1230737181
        }
      },
      "is_potentially_hazardous_asteroid" : false,
      "close_approach_data" : [ {
        "close_approach_date" : "1997-02-15",
        "epoch_date_close_approach" : 855993600000,
        "relative_velocity" : {
          "kilometers_per_second" : "12.0578233394",
          "kilometers_per_hour" : "43408.1640219613",
          "miles_per_hour" : "26972.1450279792"
        },
        "miss_distance" : {
          "astronomical" : "0.3672183362",
          "lunar" : "142.8479309082",
          "kilometers" : "54935084",
          "miles" : "34135080"
        },
        "orbiting_body" : "Earth"
      } ],
      "orbital_data" : {
        "orbit_id" : "97",
        "orbit_determination_date" : "2017-09-27 06:51:50",
        "orbit_uncertainty" : "0",
        "minimum_orbit_intersection" : ".113543",
        "jupiter_tisserand_invariant" : "6.326",
        "epoch_osculation" : "2458000.5",
        "eccentricity" : ".3462912345976584",
        "semi_major_axis" : ".9375804265711696",
        "inclination" : "12.77833710327869",
        "ascending_node_longitude" : "259.9517694521273",
        "orbital_period" : "331.5974828563657",
        "perihelion_distance" : ".6129045431192401",
        "perihelion_argument" : "203.7846993891176",
        "aphelion_distance" : "1.262256310023099",
        "perihelion_time" : "2458099.877786882534",
        "mean_anomaly" : "252.11014821482",
        "mean_motion" : "1.085653596942221",
        "equinox" : "J2000"
      }
    }, {
      "links" : {
        "self" : "https://api.nasa.gov/neo/rest/v1/neo/2392476?api_key=t0TVs3DtDT2H8Oy2Zy8m2eVrNsAVKAexjcZXUckd"
      },
      "neo_reference_id" : "2392476",
      "name" : "392476 (2011 GD3)",
      "nasa_jpl_url" : "http://ssd.jpl.nasa.gov/sbdb.cgi?sstr=2392476",
      "absolute_magnitude_h" : 19.1,
      "estimated_diameter" : {
        "kilometers" : {
          "estimated_diameter_min" : 0.4023045798,
          "estimated_diameter_max" : 0.8995803882
        },
        "meters" : {
          "estimated_diameter_min" : 402.3045798343,
          "estimated_diameter_max" : 899.5803881691
        },
        "miles" : {
          "estimated_diameter_min" : 0.2499803991,
          "estimated_diameter_max" : 0.5589731654
        },
        "feet" : {
          "estimated_diameter_min" : 1319.8969577037,
          "estimated_diameter_max" : 2951.3793207207
        }
      },
      "is_potentially_hazardous_asteroid" : false,
      "close_approach_data" : [ {
        "close_approach_date" : "1997-02-15",
        "epoch_date_close_approach" : 855993600000,
        "relative_velocity" : {
          "kilometers_per_second" : "20.6387494307",
          "kilometers_per_hour" : "74299.4979504952",
          "miles_per_hour" : "46166.8186015174"
        },
        "miss_distance" : {
          "astronomical" : "0.2244215136",
          "lunar" : "87.2999725342",
          "kilometers" : "33572980",
          "miles" : "20861284"
        },
        "orbiting_body" : "Earth"
      } ],
      "orbital_data" : {
        "orbit_id" : "34",
        "orbit_determination_date" : "2017-04-06 09:21:59",
        "orbit_uncertainty" : "1",
        "minimum_orbit_intersection" : ".218242",
        "jupiter_tisserand_invariant" : "4.634",
        "epoch_osculation" : "2458000.5",
        "eccentricity" : ".6604951066735082",
        "semi_major_axis" : "1.336057910561195",
        "inclination" : "13.69855221716085",
        "ascending_node_longitude" : "39.30068364142269",
        "orbital_period" : "564.0743492074516",
        "perihelion_distance" : ".453598198403094",
        "perihelion_argument" : "357.4535725739505",
        "aphelion_distance" : "2.218517622719296",
        "perihelion_time" : "2457776.305272096466",
        "mean_anomaly" : "143.0841557654119",
        "mean_motion" : ".6382137399188871",
        "equinox" : "J2000"
      }
    }, {
      "links" : {
        "self" : "https://api.nasa.gov/neo/rest/v1/neo/3127411?api_key=t0TVs3DtDT2H8Oy2Zy8m2eVrNsAVKAexjcZXUckd"
      },
      "neo_reference_id" : "3127411",
      "name" : "(2002 MN)",
      "nasa_jpl_url" : "http://ssd.jpl.nasa.gov/sbdb.cgi?sstr=3127411",
      "absolute_magnitude_h" : 23.6,
      "estimated_diameter" : {
        "kilometers" : {
          "estimated_diameter_min" : 0.0506471459,
          "estimated_diameter_max" : 0.1132504611
        },
        "meters" : {
          "estimated_diameter_min" : 50.6471458835,
          "estimated_diameter_max" : 113.2504610618
        },
        "miles" : {
          "estimated_diameter_min" : 0.0314706677,
          "estimated_diameter_max" : 0.0703705522
        },
        "feet" : {
          "estimated_diameter_min" : 166.1651821003,
          "estimated_diameter_max" : 371.5566426699
        }
      },
      "is_potentially_hazardous_asteroid" : false,
      "close_approach_data" : [ {
        "close_approach_date" : "1997-02-15",
        "epoch_date_close_approach" : 855993600000,
        "relative_velocity" : {
          "kilometers_per_second" : "23.7920252172",
          "kilometers_per_hour" : "85651.290782073",
          "miles_per_hour" : "53220.3812084497"
        },
        "miss_distance" : {
          "astronomical" : "0.446772018",
          "lunar" : "173.7943115234",
          "kilometers" : "66836140",
          "miles" : "41530052"
        },
        "orbiting_body" : "Earth"
      } ],
      "orbital_data" : {
        "orbit_id" : "18",
        "orbit_determination_date" : "2017-04-06 09:15:03",
        "orbit_uncertainty" : "6",
        "minimum_orbit_intersection" : ".00066345",
        "jupiter_tisserand_invariant" : "3.890",
        "epoch_osculation" : "2458000.5",
        "eccentricity" : ".4984548071415904",
        "semi_major_axis" : "1.815305008386135",
        "inclination" : "1.048018273547122",
        "ascending_node_longitude" : "85.22005146852048",
        "orbital_period" : "893.3524559164737",
        "perihelion_distance" : ".9104575005278611",
        "perihelion_argument" : "131.5524554622334",
        "aphelion_distance" : "2.72015251624441",
        "perihelion_time" : "2457764.317711479294",
        "mean_anomaly" : "95.1758998414885",
        "mean_motion" : ".402976448562715",
        "equinox" : "J2000"
      }
    }, {
      "links" : {
        "self" : "https://api.nasa.gov/neo/rest/v1/neo/3769400?api_key=t0TVs3DtDT2H8Oy2Zy8m2eVrNsAVKAexjcZXUckd"
      },
      "neo_reference_id" : "3769400",
      "name" : "(2017 CP32)",
      "nasa_jpl_url" : "http://ssd.jpl.nasa.gov/sbdb.cgi?sstr=3769400",
      "absolute_magnitude_h" : 23.9,
      "estimated_diameter" : {
        "kilometers" : {
          "estimated_diameter_min" : 0.04411182,
          "estimated_diameter_max" : 0.0986370281
        },
        "meters" : {
          "estimated_diameter_min" : 44.1118199997,
          "estimated_diameter_max" : 98.6370281305
        },
        "miles" : {
          "estimated_diameter_min" : 0.0274098057,
          "estimated_diameter_max" : 0.0612901888
        },
        "feet" : {
          "estimated_diameter_min" : 144.7238235278,
          "estimated_diameter_max" : 323.6123073718
        }
      },
      "is_potentially_hazardous_asteroid" : false,
      "close_approach_data" : [ {
        "close_approach_date" : "1997-02-15",
        "epoch_date_close_approach" : 855993600000,
        "relative_velocity" : {
          "kilometers_per_second" : "16.6762082329",
          "kilometers_per_hour" : "60034.349638579",
          "miles_per_hour" : "37303.0101962604"
        },
        "miss_distance" : {
          "astronomical" : "0.2709155881",
          "lunar" : "105.3861694336",
          "kilometers" : "40528396",
          "miles" : "25183178"
        },
        "orbiting_body" : "Earth"
      } ],
      "orbital_data" : {
        "orbit_id" : "7",
        "orbit_determination_date" : "2017-09-03 06:18:07",
        "orbit_uncertainty" : "6",
        "minimum_orbit_intersection" : ".000348636",
        "jupiter_tisserand_invariant" : "6.927",
        "epoch_osculation" : "2458000.5",
        "eccentricity" : ".2517325152851436",
        "semi_major_axis" : ".8416159161070113",
        "inclination" : "16.98444648793923",
        "ascending_node_longitude" : "323.370546871452",
        "orbital_period" : "282.0131352800228",
        "perihelion_distance" : ".6297538246413829",
        "perihelion_argument" : "37.43206542213817",
        "aphelion_distance" : "1.05347800757264",
        "perihelion_time" : "2457983.381447850461",
        "mean_anomaly" : "21.85245296363499",
        "mean_motion" : "1.276536284888081",
        "equinox" : "J2000"
      }
    } ]
  }
}